STARLINK-6239           
1 56423U 23061BB  23132.91667824  .00000216  00000+0  50970-5 0  9990
2 56423  43.0065  59.5495 0001524 263.1422 213.9961 15.71348929  1303
STARLINK-6242           
1 56424U 23061BC  23132.91667824  .00000677  00000+0  86156-5 0  9997
2 56424  43.0068  59.5453 0001665 263.4224 215.5022 15.71349243  1306
STARLINK-6224           
1 56425U 23061BD  23132.91667824 -.00007022  00000+0 -50142-4 0  9996
2 56425  43.0060  59.5465 0001677 265.2055 213.1182 15.71357464  1302
STARLINK-5352           
1 56426U 23061BE  23132.91667824 -.00003823  00000+0 -25724-4 0  9990
2 56426  43.0070  59.5425 0001458 257.6868 222.4262 15.71354285  1304
STARLINK-5724           
1 56427U 23061BF  23132.91667824 -.00007944  00000+0 -57179-4 0  9998
2 56427  43.0063  59.5436 0001579 263.7378 215.7764 15.71358804  1300
STARLINK-6238           
1 56428U 23061BG  23132.91667824 -.00024443  00000+0 -18338-3 0  9995
2 56428  43.0066  59.5409 0001403 264.9166 215.7820 15.71370394  1309
STARLINK-6264           
1 56429U 23061BH  23132.91667824 -.00024339  00000+0 -18260-3 0  9994
2 56429  43.0058  59.5391 0001568 265.3036 215.9915 15.71367464  1305
FALCON 9 DEB            
1 56430U 23061BJ  23132.98342954  .00322677  45547-4  11071-2 0  9993
2 56430  43.0171  58.5936 0025613  42.0911 318.1926 15.88321772  1382
FALCON 9 DEB            
1 56431U 23061BK  23132.98132099  .00348673  52239-4  11711-2 0  9992
2 56431  43.0152  58.5751 0022340  46.0895 314.1819 15.88868028  1383
FALCON 9 DEB            
1 56432U 23061BL  23132.97574003  .00340581  50759-4  10829-2 0  9991
2 56432  43.0107  58.5224 0020421  34.3410 325.8780 15.90015743  1387
FALCON 9 DEB            
1 56433U 23061BM  23132.97454659  .00346129  52229-4  10977-2 0  9998
2 56433  43.0100  58.5123 0019678  36.3090 323.9116 15.90090534  1380
2023-062A               
1 56442U 23062A   23132.39164498  .00000037  00000+0  00000+0 0  9997
2 56442  32.7369 122.0347 0011318 275.9252 203.2205 15.06507547   653
2023-062B               
1 56443U 23062B   23132.38914748  .00000037  00000+0  00000+0 0  9998
2 56443  32.7407 122.0511 0013555 256.4107 222.0937 15.07350350   647
2023-062C               
1 56444U 23062C   23132.38837921  .00000037  00000+0  00000+0 0  9996
2 56444  32.7442 121.9928 0014557 260.0617 218.2707 15.07592437   610
2023-062D               
1 56445U 23062D   23132.46522553 -.00000045  00000+0  00000+0 0  9998
2 56445  35.4835 123.3854 0014463 270.0926 228.1719 15.05521673   638
TIANZHOU-6              
1 56446U 23063A   23131.45757309  .00043769  00000+0  46805-3 0  9993
2 56446  41.4749  19.2256 0007200 248.2750 287.8144 15.63055931116097
CZ-7 R/B                
1 56447U 23063B   23133.08280325  .00990375  75593-5  61942-3 0  9992
2 56447  41.4814   8.3064 0078910 193.8386 166.0344 16.09768165   399
